name,,city,,state,street,zip,,,phone,email
Spring Valley Dentist Office,,Las Vegas,,NV,"6160 W Tropicana Ave, Ste E-1",89103,,,(702) 858-9466,smile@springvalleydentistoffice.com
A Childrens Dentist LLP,,Las Vegas,,NV,"8710 W Charleston Blvd, Ste 100",89117,,,(702) 255-0133,frontoffice8710@aol.com
Periodontics Limited,,Las Vegas,,NV,3811 W Charleston Blvd Ste 201,89102,,,(702) 259-1943,taylor.lvperio@gmail.com
James Heltzel DMD- Las Vegas Holistic Dentist,,Las Vegas,,NV,4312 S Eastern Ave,89119,,,(702) 733-7244,drheltzel@cox.net
Healthy Smiles Las Vegas Dentist,,Las Vegas,,NV,"9620 Las Vegas Blvd S, Ste E14",89123,,,(702) 522-9933,healthysmileslv@live.com
My Kid's Dentist & Orthodontics,,Las Vegas,,NV,"7171 W Craig Rd, Ste 101",89129,,,(702) 655-5435,lasvegas@mykidsdentistonline.com
My Kid's Dentist & Orthodontics,,North Las Vegas,,NV,3896 N MLK Blvd,89032,,,(702) 395-5437,alexander@mykidsdentistonline.com
Las Vegas Dentist,,Henderson,,NV,2528 Paradise Village Way,89074,,,(702) 518-6577,localadzlv@gmail.com
Hollywood Smile Dental,,Las Vegas,,NV,2425 E Tropicana Ave,89121,,,(702) 240-9200,hollywoodsmilelv@gmail.com
Smiles Today Dental Group,,Las Vegas,,NV,1580 E Desert Inn Rd,89169,,,(702) 655-6777,info@smilestodaydental.com
Summerlin Smiles,,Las Vegas,,NV,"9525 W Russell Rd, Ste 100",89148,,,(702) 579-7645,summerlin_smiles@hotmail.com
Academy of Dental Careers,,Las Vegas,,NV,9061 W Post Rd,89184,,,(702) 581-8095,rewardingcareer@gmail.com
Shadow Mountain Dental Group and Orthodontics,,Las Vegas,,NV,"6525 N Decatur Blvd, Ste 150",89131,,,(702) 577-1941,smile@shadowmountaindentalgroup.com
Affordable Braces,,Las Vegas,,NV,6440 W Flamingo Rd,89103,,,(702) 733-7645,ba@affordablebraceslv.com
Abbey Dental,,Las Vegas,,NV,4408 S Eastern Ave,89119,,,(702) 731-5700,info@lasvegasdental.org
Alexander Dental Group and Orthodontics,,North Las Vegas,,NV,3896 N Martin Luther King Blvd,89032,,,(702) 614-1792,smile@alexanderdentalgroup.com
ABC Dental Care - Las Vegas,,Las Vegas,,NV,7219 W Sahara Ave #130,89117,,,(702) 228-1700,info@abcdentalcare.com
Deer Springs Modern Dentistry and Orthodontics,,North Las Vegas,,NV,"640 E Deer Springs Way, Ste 180",89086,,,(702) 399-3800,smile@deerspringsmoderndentistry.com
Tender Dental,,Las Vegas,,NV,5001 E Bonanza Rd Ste 160,89110,,,(702) 307-2273,gotguns@aol.com
Aloha Dental,,Las Vegas,,NV,3955 S Durango Dr,89147,,,(702) 425-8354,aloha2016lv@gmail.com
Inventive Dental Solutions,,Las Vegas,,NV,11723 Puerto Banus Ave,89138,,,(214) 505-6586,stevelsperry@gmail.com
Sedation Dental Surgical Center,,North Las Vegas,,NV,4090 N Martin L King Blvd,89032,,,(702) 489-5460,lvsleepdentistry@gmail.com
Simister and Branham Dental,,Las Vegas,,NV,"4610 Meadows Lane, Suite B",89107,,,(702) 878-7700,drsim2005@gmail.com
ABC Dental Implant Center - Las Vegas,,Las Vegas,,NV,7219 W. sahara suite 110,89117,,,(702) 778-4250,info@abcdentalimplantcenter.com
The Las Vegas Institute for Advanced Dental Studies,,Las Vegas,,NV,"1401 Hillshire Dr, Ste 200",89134,,,(888) 584-3237,concierge@lviglobal.com
Las Vegas Wisdom Teeth,,Henderson,,NV,375 N. Stephanie St Ste 211,89014,,,(702) 903-1784,lasvegaswisdomteeth@gmail.com
Aliante Dental,,North Las Vegas,,NV,6885 Aliante Pkwy Ste 111,89084,,,(702) 515-1888,om@aliantedentallv.com
Las Vegas Dentist - Las Vegas Center For Cosmetic Dentistry,,Las Vegas,,NV,6136 W Sahara Ave,89146,,,(702) 362-9353,lvccdsmiles@htomail.com
OdontoSur,,Envigado,,null,Cr 48 No 25 AA Sur 70 Oficina 506 - Edificio Complex de las Vegas,null,,,44445959,mercadeo@odontosur.com.co
Dee for Dentist,,Las Vegas,,NV,8772 S Maryland Pkwy Ste 100,89123,,,(702) 586-7800,info@deefordentist.com
Las Vegas Dentist,,Las Vegas,,NV,8940 W Tropicana Ave,89147,,,(702) 248-4448,smile@infinitydentallv.com
Oral 10,,Medell√≠n,,null,carrera 48 # 7 - 270 Las Vegas Mall,4,,,313 705 45 94,oral10vegas@gmail.com
"Flores Family Dental: Michael Flores, DMD General Dentist",,Las Vegas,,NV,"6536 N Decatur Blvd, Ste 120",89131,,,(702) 242-3373,info@floresfamilydental.com
"Adventure Smiles, Dentistry for Children",,Las Vegas,,NV,"8995 W Flamingo Rd, Ste 100",89147,,,(702) 838-5437,office@adventuresmiles.com
Smile Solutions - Russell,,Las Vegas,,NV,8954 Spanish Ridge,89148,,,(702) 364-0044,smilesolutionsrussell@gmail.com
Smiles for Life Family Dentistry,,Las Vegas,,NV,8930 W Sunset Rd Ste 190,89148,,,(702) 795-2273,kelleysmilesforlife@gmail.com
Little Smiles Pediatric Dentistry,,Las Vegas,,NV,"6169 S Rainbow Blvd, Ste 100",89118,,,(702) 658-6700,info@littlesmileslv.com
Galaxy Smiles Children's Dentist and Braces,,Las Vegas,,NV,9575  W. Tropicana Ave. Suite # 5,89147,,,(702) 633-8331,forms@galaxysmiles.com
Dental Care International,,Las Vegas,,NV,1750 Wheeler Peak Dr,89106,,,(702) 272-1100,info@dcare.org
Diamond Dental Group and Orthodontics,,Las Vegas,,NV,"4380 Blue Diamond Rd, Ste 102",89139,,,(702) 425-4424,smile@bluediamonddentalgroup.com
Dr. Jorge Paez DDS,,Las Vegas,,NV,4455 S Jones Blvd,89103,,,(702) 737-3553,jpaezdds@gmail.com
Providence Dental,,Las Vegas,,NV,7181 n hualapai way #105,89166,,,(702) 852-2244,smile@providencedental.com
The Dentist of Summerlin,,Las Vegas,,NV,"1930 Village Center Cir, Ste 12",89134,,,(702) 562-2322,drgadavis@yahoo.com
Kids' Dental Safari and Braces,,Las Vegas,,NV,2381 B. Renaissance Drive,89119,,,(702) 786-6684,kidsdentalsafari.info@yahoo.com
"Cosmetic Dentist in Las Vegas, NV 89117",,Las Vegas,,NV,"7720 W Sahara Ave, Ste 114",89117,,,(702) 763-3758,info@cosmeticdentistinvegas.com
Mom Wife Dentist,,Las Vegas,,NV,Dental Implant Institute 6170 W Desert Inn Rd,89146,,,(702) 220-5000,drpatterson@diilv.com
Glen Gallimore DR DDS,,Las Vegas,,NV,3455 Cliff Shadows Pkwy Ste 130,89129-1062,,,(702) 839-0500,kathy@702dentist.com
Pearly Whites Family Dentistry,,Las Vegas,,NV,"3650 S Eastern Ave, #220",89169,,,(702) 888-1220,info@pearlywhiteslv.com
Prophy Magic,,Las Vegas,,NV,"3325 W. Ali Baba Lane, Suite 605",89118,,,(702) 538-7700,sean@prophymagic.com
Pro Dentista- Las Vegas Dentist,,Las Vegas,,NV,4318 S Eastern Ave,89119,,,(702) 736-6119,prodentista@gmail.com
Dental & Oral Health Conferences,,Las Vegas,,NV,2360  Corporate Cir,89074-7722,,,(888) 843-8169,contact@omicsgroup.com
Desert Inn Smiles,,Las Vegas,,NV,3220 S. Durango Dr. Ste B2,89117,,,(702) 834-7707,info@desertinnsmileslv.com
Half Dental,,Las Vegas,,NV,"2605 S Decatur Blvd, Ste 116",89102,,,(702) 830-4118,info@halfdental.com
Whispering Pines Dental,,Las Vegas,,NV,"4765 S Durango Dr, Ste 100",89147-8158,,,(702) 384-5070,marketingwpdlv@gmail.com
Modern Dental Care,,Las Vegas,,NV,9895 S Maryland Pkwy Ste A,89183,,,(702) 372-4039,moderndentallv@gmail.com
The Dental Implant Center LV,,Las Vegas,,NV,7219 w.sahara # 110,89117,,,(702) 382-5678,info@abcdentalnv.com
Hillcrest Dental Las Vegas,,Las Vegas,,NV,"3350 Novat St, Ste 145",89129,,,(702) 395-1088,welcome@hcdentallv.com
Montecito Town Center Dental Group and Orthodontics,,Las Vegas,,NV,7125 N Durango Dr,89149,,,(702) 658-2311,smile@montecitotowncenterdental.com
Divine Dental,,Las Vegas,,NV,"7035 W Ann Rd, Ste 110",89130,,,(702) 396-2929,info@divinedentallv.com
Trobough Dental,,Las Vegas,,NV,"8440 W. Lake Mead Blvd., Suite 207",89128,,,(702) 888-1266,smile@troboughdental.com
KYOUI Toothbrush,,Las Vegas,,NV,6787 W Tropicana Ave #274,89103,,,(855) 465-9684,info@kyoui.com
Dr. Jeffrey N. Suffoletta,,Las Vegas,,NV,"9580 W Sahara Ave, # 190",89117,,,(702) 671-0001,drsuffoletta@gmail.com
Matthew J Wilson Inspire Dental of Summerlin,,Las Vegas,,NV,"2095 Village Center Cir, Suite 120",89134,,,(702) 331-4700,inspiredentalofsummerlin@gmail.com
Eastern Hills Family Dental,,Las Vegas,,NV,5905 S. Eastern Ave. Suite 112,89119,,,(702) 262-5693,info@easternhillsfamilydental.com
HST America,,Las Vegas,,NV,"8887 W. Flamingo Rd, Ste 101",89147,,,(855) 937-2543,contact@hstamerica.com
247 Dentist Directory,,Las Vegas,,NV,8465 W Sahara Ave #111-1115,89117,,,(702) 900-8517,support@247dentistdirectory.com
